sAMAccountName,password,ou,department,groups,userPrincipalName,givenName,initials,sn,displayname,description,physicalDeliveryOfficeName,telephoneNumber,mail,wwwHomepage,StreetAddress,postOfficeBox,l,st,postalCode,c,profilePath,scriptPath,homeDrive,homeDirectory,homePhone,mobile,ipPhone,title,company,employeeid,employeenumber,manager,proxyAddresses
Ebony.Kelly,Football22!,"OU=Marketing,OU=ADPRO Users,DC=ad,DC=activedirectorypro,DC=com",Marketing,"Marketing_local,Marketing_Folders",Ebony.Kelly@activedirectorypro.com,Ebony,B,Kelly,Ebony Kelly,Marketing User,Marketing Office,###-###-####,Ebony.Kelly@activedirectorypro.com,activedirectorypro.com,#### Berry Lane, PO Box 1234,Tulsa,OK,74120,US,\\server\profiles\%username%,marketing.bat,z:,\\server\users\Marketing\%username%,###-###-####,###-###-####,###-###-####,Marketing Coordinator,Active Directory Pro,1010,11,robert.allen,SMTP:Ebony.Kelly@activedirectorypro.com
Karen.Spies,Football22!,"OU=Marketing,OU=ADPRO Users,DC=ad,DC=activedirectorypro,DC=com",Marketing,"Marketing_local,Marketing_Folders",Karen.Spies@activedirectorypro.com,Karen,J,Spies,Karen Spies,Marketing User,Marketing Office,###-###-####,Karen.Spies@activedirectorypro.com,activedirectorypro.com,#### Berry Lane, PO Box 1234,Gresham,WI,54128,US,\\server\profiles\%username%,marketing.bat,z:,\\server\users\Marketing\%username%,###-###-####,###-###-####,###-###-####,Marketing Coordinator,Active Directory Pro,1011,12,robert.allen,SMTP:Karen.Spies@activedirectorypro.com
Robert.Slade,Football22!,"OU=Marketing,OU=ADPRO Users,DC=ad,DC=activedirectorypro,DC=com",Marketing,"Marketing_local,Marketing_Folders",Robert.Slade@activedirectorypro.com,Robert,L,Slade,Robert Slade,Marketing User,Marketing Office,###-###-####,Robert.Slade@activedirectorypro.com,activedirectorypro.com,#### Berry Lane, PO Box 1234,Fredericksburg,IN,47120,US,\\server\profiles\%username%,marketing.bat,z:,\\server\users\Marketing\%username%,###-###-####,###-###-####,###-###-####,Marketing Coordinator,Active Directory Pro,1012,13,robert.allen,SMTP:Robert.Slade@activedirectorypro.com
Adam.Anderson,Football22!,"OU=Marketing,OU=ADPRO Users,DC=ad,DC=activedirectorypro,DC=com",Marketing,"Marketing_local,Marketing_Folders",Adam.Anderson@activedirectorypro.com,Adam,A,Anderson,Adam Anderson,Marketing User,Marketing Office,###-###-####,Adam.Anderson@activedirectorypro.com,activedirectorypro.com,#### Berry Lane, PO Box 1234,Boston,MA,2210,US,\\server\profiles\%username%,marketing.bat,z:,\\server\users\Marketing\%username%,###-###-####,###-###-####,###-###-####,Marketing Coordinator,Active Directory Pro,1013,14,robert.allen,SMTP:Adam.Anderson@activedirectorypro.com
Debbie.Alexander,Football22!,"OU=Marketing,OU=ADPRO Users,DC=ad,DC=activedirectorypro,DC=com",Marketing,"Marketing_local,Marketing_Folders",Debbie.Alexander@activedirectorypro.com,Debbie,K,Alexander,Debbie Alexander,Marketing User,Marketing Office,###-###-####,Debbie.Alexander@activedirectorypro.com,activedirectorypro.com,#### Berry Lane, PO Box 1234,Sioux City,IA,51101,US,\\server\profiles\%username%,marketing.bat,z:,\\server\users\Marketing\%username%,###-###-####,###-###-####,###-###-####,Marketing Coordinator,Active Directory Pro,1014,15,robert.allen,SMTP:Debbie.Alexander@activedirectorypro.com
Aimee.Delk,Football22!,"OU=Marketing,OU=ADPRO Users,DC=ad,DC=activedirectorypro,DC=com",Marketing,"Marketing_local,Marketing_Folders",Aimee.Delk@activedirectorypro.com,Aimee,P,Delk,Aimee Delk,Marketing User,Marketing Office,###-###-####,Aimee.Delk@activedirectorypro.com,activedirectorypro.com,#### Berry Lane, PO Box 1234,Denver,CO,80239,US,\\server\profiles\%username%,marketing.bat,z:,\\server\users\Marketing\%username%,###-###-####,###-###-####,###-###-####,Marketing Coordinator,Active Directory Pro,1015,16,robert.allen,SMTP:Aimee.Delk@activedirectorypro.com
Edward.Gordon,Football22!,"OU=Marketing,OU=ADPRO Users,DC=ad,DC=activedirectorypro,DC=com",Marketing,"Marketing_local,Marketing_Folders",Edward.Gordon@activedirectorypro.com,Edward,A,Gordon,Edward Gordon,Marketing User,Marketing Office,###-###-####,Edward.Gordon@activedirectorypro.com,activedirectorypro.com,#### Berry Lane, PO Box 1234,Bellbrook,OH,45305,US,\\server\profiles\%username%,marketing.bat,z:,\\server\users\Marketing\%username%,###-###-####,###-###-####,###-###-####,Marketing Coordinator,Active Directory Pro,1016,17,robert.allen,SMTP:Edward.Gordon@activedirectorypro.com
Joe.Sims,Football22!,"OU=Marketing,OU=ADPRO Users,DC=ad,DC=activedirectorypro,DC=com",Marketing,"Marketing_local,Marketing_Folders",Joe.Sims@activedirectorypro.com,Joe,B,Sims,Joe Sims,Marketing User,Marketing Office,###-###-####,Joe.Sims@activedirectorypro.com,activedirectorypro.com,#### Berry Lane, PO Box 1234,Indianapolis,IN,46225,US,\\server\profiles\%username%,marketing.bat,z:,\\server\users\Marketing\%username%,###-###-####,###-###-####,###-###-####,Marketing Coordinator,Active Directory Pro,1017,18,robert.allen,SMTP:Joe.Sims@activedirectorypro.com
John.Teague,Football22!,"OU=Marketing,OU=ADPRO Users,DC=ad,DC=activedirectorypro,DC=com",Marketing,"Marketing_local,Marketing_Folders",John.Teague@activedirectorypro.com,John,S,Teague,John Teague,Marketing User,Marketing Office,###-###-####,John.Teague@activedirectorypro.com,activedirectorypro.com,#### Berry Lane, PO Box 1234,Kansas City,MO,64106,US,\\server\profiles\%username%,marketing.bat,z:,\\server\users\Marketing\%username%,###-###-####,###-###-####,###-###-####,Marketing Coordinator,Active Directory Pro,1018,19,robert.allen,SMTP:John.Teague@activedirectorypro.com
Ramona.Quintana,Football22!,"OU=Marketing,OU=ADPRO Users,DC=ad,DC=activedirectorypro,DC=com",Marketing,"Marketing_local,Marketing_Folders",Ramona.Quintana@activedirectorypro.com,Ramona,R,Quintana,Ramona Quintana,Marketing User,Marketing Office,###-###-####,Ramona.Quintana@activedirectorypro.com,activedirectorypro.com,#### Berry Lane, PO Box 1234,Detroit,MI,48226,US,\\server\profiles\%username%,marketing.bat,z:,\\server\users\Marketing\%username%,###-###-####,###-###-####,###-###-####,Marketing Coordinator,Active Directory Pro,1019,20,robert.allen,SMTP:Ramona.Quintana@activedirectorypro.com
Cory.Wilson,Football22!,"OU=Marketing,OU=ADPRO Users,DC=ad,DC=activedirectorypro,DC=com",Marketing,"Marketing_local,Marketing_Folders",Cory.Wilson@activedirectorypro.com,Cory,J,Wilson,Cory Wilson,Marketing User,Marketing Office,###-###-####,Cory.Wilson@activedirectorypro.com,activedirectorypro.com,#### Berry Lane, PO Box 1234,Baton Rouge,LA,70814,US,\\server\profiles\%username%,marketing.bat,z:,\\server\users\Marketing\%username%,###-###-####,###-###-####,###-###-####,Marketing Coordinator,Active Directory Pro,1020,21,robert.allen,SMTP:Cory.Wilson@activedirectorypro.com
Clarence.Olson,Football22!,"OU=Marketing,OU=ADPRO Users,DC=ad,DC=activedirectorypro,DC=com",Marketing,"Marketing_local,Marketing_Folders",Clarence.Olson@activedirectorypro.com,Clarence,J,Olson,Clarence Olson,Marketing User,Marketing Office,###-###-####,Clarence.Olson@activedirectorypro.com,activedirectorypro.com,#### Berry Lane, PO Box 1234,Lexington,KY,40507,US,\\server\profiles\%username%,marketing.bat,z:,\\server\users\Marketing\%username%,###-###-####,###-###-####,###-###-####,Marketing Coordinator,Active Directory Pro,1021,22,robert.allen,SMTP:Clarence.Olson@activedirectorypro.com
Jill.Glass,Football22!,"OU=Marketing,OU=ADPRO Users,DC=ad,DC=activedirectorypro,DC=com",Marketing,"Marketing_local,Marketing_Folders",Jill.Glass@activedirectorypro.com,Jill,C,Glass,Jill Glass,Marketing User,Marketing Office,###-###-####,Jill.Glass@activedirectorypro.com,activedirectorypro.com,#### Berry Lane, PO Box 1234,Birmingham,AL,35222,US,\\server\profiles\%username%,marketing.bat,z:,\\server\users\Marketing\%username%,###-###-####,###-###-####,###-###-####,Marketing Coordinator,Active Directory Pro,1022,23,robert.allen,SMTP:Jill.Glass@activedirectorypro.com
Jason.Muir,Football22!,"OU=Marketing,OU=ADPRO Users,DC=ad,DC=activedirectorypro,DC=com",Marketing,"Marketing_local,Marketing_Folders",Jason.Muir@activedirectorypro.com,Jason,S,Muir,Jason Muir,Marketing User,Marketing Office,###-###-####,Jason.Muir@activedirectorypro.com,activedirectorypro.com,#### Berry Lane, PO Box 1234,Philadelphia,PA,19146,US,\\server\profiles\%username%,marketing.bat,z:,\\server\users\Marketing\%username%,###-###-####,###-###-####,###-###-####,Marketing Coordinator,Active Directory Pro,1023,24,robert.allen,SMTP:Jason.Muir@activedirectorypro.com
Christopher.Sisco,Football22!,"OU=Marketing,OU=ADPRO Users,DC=ad,DC=activedirectorypro,DC=com",Marketing,"Marketing_local,Marketing_Folders",Christopher.Sisco@activedirectorypro.com,Christopher,D,Sisco,Christopher Sisco,Marketing User,Marketing Office,###-###-####,Christopher.Sisco@activedirectorypro.com,activedirectorypro.com,#### Berry Lane, PO Box 1234,Plymouth,IN,46563,US,\\server\profiles\%username%,marketing.bat,z:,\\server\users\Marketing\%username%,###-###-####,###-###-####,###-###-####,Marketing Coordinator,Active Directory Pro,1024,25,robert.allen,SMTP:Christopher.Sisco@activedirectorypro.com
Samuel.Thomas,Football22!,"OU=Marketing,OU=ADPRO Users,DC=ad,DC=activedirectorypro,DC=com",Marketing,"Marketing_local,Marketing_Folders",Samuel.Thomas@activedirectorypro.com,Samuel,M,Thomas,Samuel Thomas,Marketing User,Marketing Office,###-###-####,Samuel.Thomas@activedirectorypro.com,activedirectorypro.com,#### Berry Lane, PO Box 1234,Marietta,GA,30062,US,\\server\profiles\%username%,marketing.bat,z:,\\server\users\Marketing\%username%,###-###-####,###-###-####,###-###-####,Marketing Coordinator,Active Directory Pro,1025,26,robert.allen,SMTP:Samuel.Thomas@activedirectorypro.com
Nigel.Caldwell,Football22!,"OU=Marketing,OU=ADPRO Users,DC=ad,DC=activedirectorypro,DC=com",Marketing,"Marketing_local,Marketing_Folders",Nigel.Caldwell@activedirectorypro.com,Nigel,E,Caldwell,Nigel Caldwell,Marketing User,Marketing Office,###-###-####,Nigel.Caldwell@activedirectorypro.com,activedirectorypro.com,#### Berry Lane, PO Box 1234,Secaucus,NJ,7094,US,\\server\profiles\%username%,marketing.bat,z:,\\server\users\Marketing\%username%,###-###-####,###-###-####,###-###-####,Marketing Coordinator,Active Directory Pro,1026,27,robert.allen,SMTP:Nigel.Caldwell@activedirectorypro.com
Donna.Holleran,Football22!,"OU=Marketing,OU=ADPRO Users,DC=ad,DC=activedirectorypro,DC=com",Marketing,"Marketing_local,Marketing_Folders",Donna.Holleran@activedirectorypro.com,Donna,C,Holleran,Donna Holleran,Marketing User,Marketing Office,###-###-####,Donna.Holleran@activedirectorypro.com,activedirectorypro.com,#### Berry Lane, PO Box 1234,Beaverdale,PA,15952,US,\\server\profiles\%username%,marketing.bat,z:,\\server\users\Marketing\%username%,###-###-####,###-###-####,###-###-####,Marketing Coordinator,Active Directory Pro,1027,28,robert.allen,SMTP:Donna.Holleran@activedirectorypro.com
William.Magill,Football22!,"OU=Marketing,OU=ADPRO Users,DC=ad,DC=activedirectorypro,DC=com",Marketing,"Marketing_local,Marketing_Folders",William.Magill@activedirectorypro.com,William,D,Magill,William Magill,Marketing User,Marketing Office,###-###-####,William.Magill@activedirectorypro.com,activedirectorypro.com,#### Berry Lane, PO Box 1234,Marshfield,MO,65706,US,\\server\profiles\%username%,marketing.bat,z:,\\server\users\Marketing\%username%,###-###-####,###-###-####,###-###-####,Marketing Coordinator,Active Directory Pro,1028,29,robert.allen,SMTP:William.Magill@activedirectorypro.com
Nicole.Benson,Football22!,"OU=Marketing,OU=ADPRO Users,DC=ad,DC=activedirectorypro,DC=com",Marketing,"Marketing_local,Marketing_Folders",Nicole.Benson@activedirectorypro.com,Nicole,C,Benson,Nicole Benson,Marketing User,Marketing Office,###-###-####,Nicole.Benson@activedirectorypro.com,activedirectorypro.com,#### Berry Lane, PO Box 1234,Knoxville,TN,37918,US,\\server\profiles\%username%,marketing.bat,z:,\\server\users\Marketing\%username%,###-###-####,###-###-####,###-###-####,Marketing Coordinator,Active Directory Pro,1029,30,robert.allen,SMTP:Nicole.Benson@activedirectorypro.com
Louise.Quinn,Football22!,"OU=Marketing,OU=ADPRO Users,DC=ad,DC=activedirectorypro,DC=com",Marketing,"Marketing_local,Marketing_Folders",Louise.Quinn@activedirectorypro.com,Louise,J,Quinn,Louise Quinn,Marketing User,Marketing Office,###-###-####,Louise.Quinn@activedirectorypro.com,activedirectorypro.com,#### Berry Lane, PO Box 1234,Arlington,VA,22206,US,\\server\profiles\%username%,marketing.bat,z:,\\server\users\Marketing\%username%,###-###-####,###-###-####,###-###-####,Marketing Coordinator,Active Directory Pro,1030,31,robert.allen,SMTP:Louise.Quinn@activedirectorypro.com
Elaine.Thompson,Football22!,"OU=Marketing,OU=ADPRO Users,DC=ad,DC=activedirectorypro,DC=com",Marketing,"Marketing_local,Marketing_Folders",Elaine.Thompson@activedirectorypro.com,Elaine,D,Thompson,Elaine Thompson,Marketing User,Marketing Office,###-###-####,Elaine.Thompson@activedirectorypro.com,activedirectorypro.com,#### Berry Lane, PO Box 1234,Hollywood,FL,33024,US,\\server\profiles\%username%,marketing.bat,z:,\\server\users\Marketing\%username%,###-###-####,###-###-####,###-###-####,Marketing Coordinator,Active Directory Pro,1031,32,robert.allen,SMTP:Elaine.Thompson@activedirectorypro.com
Paul.Gonzalez,Football22!,"OU=Marketing,OU=ADPRO Users,DC=ad,DC=activedirectorypro,DC=com",Marketing,"Marketing_local,Marketing_Folders",Paul.Gonzalez@activedirectorypro.com,Paul,S,Gonzalez,Paul Gonzalez,Marketing User,Marketing Office,###-###-####,Paul.Gonzalez@activedirectorypro.com,activedirectorypro.com,#### Berry Lane, PO Box 1234,Radcliff,KY,40180,US,\\server\profiles\%username%,marketing.bat,z:,\\server\users\Marketing\%username%,###-###-####,###-###-####,###-###-####,Marketing Coordinator,Active Directory Pro,1032,33,robert.allen,SMTP:Paul.Gonzalez@activedirectorypro.com
Jesus.Basile,Football22!,"OU=Marketing,OU=ADPRO Users,DC=ad,DC=activedirectorypro,DC=com",Marketing,"Marketing_local,Marketing_Folders",Jesus.Basile@activedirectorypro.com,Jesus,L,Basile,Jesus Basile,Marketing User,Marketing Office,###-###-####,Jesus.Basile@activedirectorypro.com,activedirectorypro.com,#### Berry Lane, PO Box 1234,Polk City,FL,33868,US,\\server\profiles\%username%,marketing.bat,z:,\\server\users\Marketing\%username%,###-###-####,###-###-####,###-###-####,Marketing Coordinator,Active Directory Pro,1033,34,robert.allen,SMTP:Jesus.Basile@activedirectorypro.com
Stacy.Miller,Football22!,"OU=Marketing,OU=ADPRO Users,DC=ad,DC=activedirectorypro,DC=com",Marketing,"Marketing_local,Marketing_Folders",Stacy.Miller@activedirectorypro.com,Stacy,F,Miller,Stacy Miller,Marketing User,Marketing Office,###-###-####,Stacy.Miller@activedirectorypro.com,activedirectorypro.com,#### Berry Lane, PO Box 1234,Texas City,TX,77591,US,\\server\profiles\%username%,marketing.bat,z:,\\server\users\Marketing\%username%,###-###-####,###-###-####,###-###-####,Marketing Coordinator,Active Directory Pro,1034,35,robert.allen,SMTP:Stacy.Miller@activedirectorypro.com
Charles.Robertson,Football22!,"OU=Marketing,OU=ADPRO Users,DC=ad,DC=activedirectorypro,DC=com",Marketing,"Marketing_local,Marketing_Folders",Charles.Robertson@activedirectorypro.com,Charles,C,Robertson,Charles Robertson,Marketing User,Marketing Office,###-###-####,Charles.Robertson@activedirectorypro.com,activedirectorypro.com,#### Berry Lane, PO Box 1234,Santa Rosa,CA,95401,US,\\server\profiles\%username%,marketing.bat,z:,\\server\users\Marketing\%username%,###-###-####,###-###-####,###-###-####,Marketing Coordinator,Active Directory Pro,1035,36,robert.allen,SMTP:Charles.Robertson@activedirectorypro.com
George.Mosely,Football22!,"OU=Marketing,OU=ADPRO Users,DC=ad,DC=activedirectorypro,DC=com",Marketing,"Marketing_local,Marketing_Folders",George.Mosely@activedirectorypro.com,George,L,Mosely,George Mosely,Marketing User,Marketing Office,###-###-####,George.Mosely@activedirectorypro.com,activedirectorypro.com,#### Berry Lane, PO Box 1234,Manassas,VA,22110,US,\\server\profiles\%username%,marketing.bat,z:,\\server\users\Marketing\%username%,###-###-####,###-###-####,###-###-####,Marketing Coordinator,Active Directory Pro,1036,37,robert.allen,SMTP:George.Mosely@activedirectorypro.com
Virginia.Norris,Football22!,"OU=Marketing,OU=ADPRO Users,DC=ad,DC=activedirectorypro,DC=com",Marketing,"Marketing_local,Marketing_Folders",Virginia.Norris@activedirectorypro.com,Virginia,L,Norris,Virginia Norris,Marketing User,Marketing Office,###-###-####,Virginia.Norris@activedirectorypro.com,activedirectorypro.com,#### Berry Lane, PO Box 1234,Plymouth Meeting,PA,19462,US,\\server\profiles\%username%,marketing.bat,z:,\\server\users\Marketing\%username%,###-###-####,###-###-####,###-###-####,Marketing Coordinator,Active Directory Pro,1037,38,robert.allen,SMTP:Virginia.Norris@activedirectorypro.com
Matthew.Gilligan,Football22!,"OU=Marketing,OU=ADPRO Users,DC=ad,DC=activedirectorypro,DC=com",Marketing,"Marketing_local,Marketing_Folders",Matthew.Gilligan@activedirectorypro.com,Matthew,D,Gilligan,Matthew Gilligan,Marketing User,Marketing Office,###-###-####,Matthew.Gilligan@activedirectorypro.com,activedirectorypro.com,#### Berry Lane, PO Box 1234,Brockton,MA,2402,US,\\server\profiles\%username%,marketing.bat,z:,\\server\users\Marketing\%username%,###-###-####,###-###-####,###-###-####,Marketing Coordinator,Active Directory Pro,1038,39,robert.allen,SMTP:Matthew.Gilligan@activedirectorypro.com
Mary.Barnett,Football22!,"OU=Marketing,OU=ADPRO Users,DC=ad,DC=activedirectorypro,DC=com",Marketing,"Marketing_local,Marketing_Folders",Mary.Barnett@activedirectorypro.com,Mary,R,Barnett,Mary Barnett,Marketing User,Marketing Office,###-###-####,Mary.Barnett@activedirectorypro.com,activedirectorypro.com,#### Berry Lane, PO Box 1234,Honolulu,HI,96813,US,\\server\profiles\%username%,marketing.bat,z:,\\server\users\Marketing\%username%,###-###-####,###-###-####,###-###-####,Marketing Coordinator,Active Directory Pro,1039,40,robert.allen,SMTP:Mary.Barnett@activedirectorypro.com
Alva.Wood,Football22!,"OU=Marketing,OU=ADPRO Users,DC=ad,DC=activedirectorypro,DC=com",Marketing,"Marketing_local,Marketing_Folders",Alva.Wood@activedirectorypro.com,Alva,E,Wood,Alva Wood,Marketing User,Marketing Office,###-###-####,Alva.Wood@activedirectorypro.com,activedirectorypro.com,#### Berry Lane, PO Box 1234,Aurora,CO,80014,US,\\server\profiles\%username%,marketing.bat,z:,\\server\users\Marketing\%username%,###-###-####,###-###-####,###-###-####,Marketing Coordinator,Active Directory Pro,1040,41,robert.allen,SMTP:Alva.Wood@activedirectorypro.com
Eric.Seifert,Football22!,"OU=Marketing,OU=ADPRO Users,DC=ad,DC=activedirectorypro,DC=com",Marketing,"Marketing_local,Marketing_Folders",Eric.Seifert@activedirectorypro.com,Eric,E,Seifert,Eric Seifert,Marketing User,Marketing Office,###-###-####,Eric.Seifert@activedirectorypro.com,activedirectorypro.com,#### Berry Lane, PO Box 1234,Bethpage,NY,11714,US,\\server\profiles\%username%,marketing.bat,z:,\\server\users\Marketing\%username%,###-###-####,###-###-####,###-###-####,Marketing Coordinator,Active Directory Pro,1041,42,robert.allen,SMTP:Eric.Seifert@activedirectorypro.com
Martha.Morales,Football22!,"OU=Marketing,OU=ADPRO Users,DC=ad,DC=activedirectorypro,DC=com",Marketing,"Marketing_local,Marketing_Folders",Martha.Morales@activedirectorypro.com,Martha,R,Morales,Martha Morales,Marketing User,Marketing Office,###-###-####,Martha.Morales@activedirectorypro.com,activedirectorypro.com,#### Berry Lane, PO Box 1234,Dowling Park,FL,32060,US,\\server\profiles\%username%,marketing.bat,z:,\\server\users\Marketing\%username%,###-###-####,###-###-####,###-###-####,Marketing Coordinator,Active Directory Pro,1042,43,robert.allen,SMTP:Martha.Morales@activedirectorypro.com
Jackie.Harris,Football22!,"OU=Marketing,OU=ADPRO Users,DC=ad,DC=activedirectorypro,DC=com",Marketing,"Marketing_local,Marketing_Folders",Jackie.Harris@activedirectorypro.com,Jackie,D,Harris,Jackie Harris,Marketing User,Marketing Office,###-###-####,Jackie.Harris@activedirectorypro.com,activedirectorypro.com,#### Berry Lane, PO Box 1234,Philadelphia,PA,19108,US,\\server\profiles\%username%,marketing.bat,z:,\\server\users\Marketing\%username%,###-###-####,###-###-####,###-###-####,Marketing Coordinator,Active Directory Pro,1043,44,robert.allen,SMTP:Jackie.Harris@activedirectorypro.com
Mary.Smart,Football22!,"OU=Marketing,OU=ADPRO Users,DC=ad,DC=activedirectorypro,DC=com",Marketing,"Marketing_local,Marketing_Folders",Mary.Smart@activedirectorypro.com,Mary,J,Smart,Mary Smart,Marketing User,Marketing Office,###-###-####,Mary.Smart@activedirectorypro.com,activedirectorypro.com,#### Berry Lane, PO Box 1234,Metairie,LA,70001,US,\\server\profiles\%username%,marketing.bat,z:,\\server\users\Marketing\%username%,###-###-####,###-###-####,###-###-####,Marketing Coordinator,Active Directory Pro,1044,45,robert.allen,SMTP:Mary.Smart@activedirectorypro.com
Timmy.Snow,Football22!,"OU=Marketing,OU=ADPRO Users,DC=ad,DC=activedirectorypro,DC=com",Marketing,"Marketing_local,Marketing_Folders",Timmy.Snow@activedirectorypro.com,Timmy,T,Snow,Timmy Snow,Marketing User,Marketing Office,###-###-####,Timmy.Snow@activedirectorypro.com,activedirectorypro.com,#### Berry Lane, PO Box 1234,Asheboro,NC,27203,US,\\server\profiles\%username%,marketing.bat,z:,\\server\users\Marketing\%username%,###-###-####,###-###-####,###-###-####,Marketing Coordinator,Active Directory Pro,1045,46,robert.allen,SMTP:Timmy.Snow@activedirectorypro.com
Jared.Dietz,Football22!,"OU=Marketing,OU=ADPRO Users,DC=ad,DC=activedirectorypro,DC=com",Marketing,"Marketing_local,Marketing_Folders",Jared.Dietz@activedirectorypro.com,Jared,C,Dietz,Jared Dietz,Marketing User,Marketing Office,###-###-####,Jared.Dietz@activedirectorypro.com,activedirectorypro.com,#### Berry Lane, PO Box 1234,Stuart,FL,34994,US,\\server\profiles\%username%,marketing.bat,z:,\\server\users\Marketing\%username%,###-###-####,###-###-####,###-###-####,Marketing Coordinator,Active Directory Pro,1046,47,robert.allen,SMTP:Jared.Dietz@activedirectorypro.com
Shannon.Key,Football22!,"OU=Marketing,OU=ADPRO Users,DC=ad,DC=activedirectorypro,DC=com",Marketing,"Marketing_local,Marketing_Folders",Shannon.Key@activedirectorypro.com,Shannon,M,Key,Shannon Key,Marketing User,Marketing Office,###-###-####,Shannon.Key@activedirectorypro.com,activedirectorypro.com,#### Berry Lane, PO Box 1234,Summit,NJ,7901,US,\\server\profiles\%username%,marketing.bat,z:,\\server\users\Marketing\%username%,###-###-####,###-###-####,###-###-####,Marketing Coordinator,Active Directory Pro,1047,48,robert.allen,SMTP:Shannon.Key@activedirectorypro.com
Leo.Puente,Football22!,"OU=Marketing,OU=ADPRO Users,DC=ad,DC=activedirectorypro,DC=com",Marketing,"Marketing_local,Marketing_Folders",Leo.Puente@activedirectorypro.com,Leo,E,Puente,Leo Puente,Marketing User,Marketing Office,###-###-####,Leo.Puente@activedirectorypro.com,activedirectorypro.com,#### Berry Lane, PO Box 1234,Chicago,IL,60631,US,\\server\profiles\%username%,marketing.bat,z:,\\server\users\Marketing\%username%,###-###-####,###-###-####,###-###-####,Marketing Coordinator,Active Directory Pro,1048,49,robert.allen,SMTP:Leo.Puente@activedirectorypro.com
Minnie.James,Football22!,"OU=Marketing,OU=ADPRO Users,DC=ad,DC=activedirectorypro,DC=com",Marketing,"Marketing_local,Marketing_Folders",Minnie.James@activedirectorypro.com,Minnie,G,James,Minnie James,Marketing User,Marketing Office,###-###-####,Minnie.James@activedirectorypro.com,activedirectorypro.com,#### Berry Lane, PO Box 1234,Mililani,HI,96789,US,\\server\profiles\%username%,marketing.bat,z:,\\server\users\Marketing\%username%,###-###-####,###-###-####,###-###-####,Marketing Coordinator,Active Directory Pro,1049,50,robert.allen,SMTP:Minnie.James@activedirectorypro.com
Irene.Terrell,Football22!,"OU=Marketing,OU=ADPRO Users,DC=ad,DC=activedirectorypro,DC=com",Marketing,"Marketing_local,Marketing_Folders",Irene.Terrell@activedirectorypro.com,Irene,J,Terrell,Irene Terrell,Marketing User,Marketing Office,###-###-####,Irene.Terrell@activedirectorypro.com,activedirectorypro.com,#### Berry Lane, PO Box 1234,Shreveport,LA,71101,US,\\server\profiles\%username%,marketing.bat,z:,\\server\users\Marketing\%username%,###-###-####,###-###-####,###-###-####,Marketing Coordinator,Active Directory Pro,1050,51,robert.allen,SMTP:Irene.Terrell@activedirectorypro.com
Lionel.Garey,Football22!,"OU=Marketing,OU=ADPRO Users,DC=ad,DC=activedirectorypro,DC=com",Marketing,"Marketing_local,Marketing_Folders",Lionel.Garey@activedirectorypro.com,Lionel,T,Garey,Lionel Garey,Marketing User,Marketing Office,###-###-####,Lionel.Garey@activedirectorypro.com,activedirectorypro.com,#### Berry Lane, PO Box 1234,Baton Rouge,LA,70814,US,\\server\profiles\%username%,marketing.bat,z:,\\server\users\Marketing\%username%,###-###-####,###-###-####,###-###-####,Marketing Coordinator,Active Directory Pro,1051,52,robert.allen,SMTP:Lionel.Garey@activedirectorypro.com
Renee.Stone,Football22!,"OU=Marketing,OU=ADPRO Users,DC=ad,DC=activedirectorypro,DC=com",Marketing,"Marketing_local,Marketing_Folders",Renee.Stone@activedirectorypro.com,Renee,J,Stone,Renee Stone,Marketing User,Marketing Office,###-###-####,Renee.Stone@activedirectorypro.com,activedirectorypro.com,#### Berry Lane, PO Box 1234,High Point,NC,27260,US,\\server\profiles\%username%,marketing.bat,z:,\\server\users\Marketing\%username%,###-###-####,###-###-####,###-###-####,Marketing Coordinator,Active Directory Pro,1052,53,robert.allen,SMTP:Renee.Stone@activedirectorypro.com
Jenna.Rushton,Football22!,"OU=Marketing,OU=ADPRO Users,DC=ad,DC=activedirectorypro,DC=com",Marketing,"Marketing_local,Marketing_Folders",Jenna.Rushton@activedirectorypro.com,Jenna,M,Rushton,Jenna Rushton,Marketing User,Marketing Office,###-###-####,Jenna.Rushton@activedirectorypro.com,activedirectorypro.com,#### Berry Lane, PO Box 1234,Atlanta,GA,30342,US,\\server\profiles\%username%,marketing.bat,z:,\\server\users\Marketing\%username%,###-###-####,###-###-####,###-###-####,Marketing Coordinator,Active Directory Pro,1053,54,robert.allen,SMTP:Jenna.Rushton@activedirectorypro.com
Michelle.Tobin,Football22!,"OU=Marketing,OU=ADPRO Users,DC=ad,DC=activedirectorypro,DC=com",Marketing,"Marketing_local,Marketing_Folders",Michelle.Tobin@activedirectorypro.com,Michelle,W,Tobin,Michelle Tobin,Marketing User,Marketing Office,###-###-####,Michelle.Tobin@activedirectorypro.com,activedirectorypro.com,#### Berry Lane, PO Box 1234,Columbus,OH,43212,US,\\server\profiles\%username%,marketing.bat,z:,\\server\users\Marketing\%username%,###-###-####,###-###-####,###-###-####,Marketing Coordinator,Active Directory Pro,1054,55,robert.allen,SMTP:Michelle.Tobin@activedirectorypro.com
Roger.Porter,Football22!,"OU=Marketing,OU=ADPRO Users,DC=ad,DC=activedirectorypro,DC=com",Marketing,"Marketing_local,Marketing_Folders",Roger.Porter@activedirectorypro.com,Roger,B,Porter,Roger Porter,Marketing User,Marketing Office,###-###-####,Roger.Porter@activedirectorypro.com,activedirectorypro.com,#### Berry Lane, PO Box 1234,Pennsauken,NJ,8110,US,\\server\profiles\%username%,marketing.bat,z:,\\server\users\Marketing\%username%,###-###-####,###-###-####,###-###-####,Marketing Coordinator,Active Directory Pro,1055,56,robert.allen,SMTP:Roger.Porter@activedirectorypro.com
Bridget.Griffing,Football22!,"OU=Marketing,OU=ADPRO Users,DC=ad,DC=activedirectorypro,DC=com",Marketing,"Marketing_local,Marketing_Folders",Bridget.Griffing@activedirectorypro.com,Bridget,N,Griffing,Bridget Griffing,Marketing User,Marketing Office,###-###-####,Bridget.Griffing@activedirectorypro.com,activedirectorypro.com,#### Berry Lane, PO Box 1234,New York,NY,10016,US,\\server\profiles\%username%,marketing.bat,z:,\\server\users\Marketing\%username%,###-###-####,###-###-####,###-###-####,Marketing Coordinator,Active Directory Pro,1056,57,robert.allen,SMTP:Bridget.Griffing@activedirectorypro.com
Roy.Gully,Football22!,"OU=Marketing,OU=ADPRO Users,DC=ad,DC=activedirectorypro,DC=com",Marketing,"Marketing_local,Marketing_Folders",Roy.Gully@activedirectorypro.com,Roy,C,Gully,Roy Gully,Marketing User,Marketing Office,###-###-####,Roy.Gully@activedirectorypro.com,activedirectorypro.com,#### Berry Lane, PO Box 1234,Denver,CO,80014,US,\\server\profiles\%username%,marketing.bat,z:,\\server\users\Marketing\%username%,###-###-####,###-###-####,###-###-####,Marketing Coordinator,Active Directory Pro,1057,58,robert.allen,SMTP:Roy.Gully@activedirectorypro.com
Sherry.Eastman,Football22!,"OU=Marketing,OU=ADPRO Users,DC=ad,DC=activedirectorypro,DC=com",Marketing,"Marketing_local,Marketing_Folders",Sherry.Eastman@activedirectorypro.com,Sherry,J,Eastman,Sherry Eastman,Marketing User,Marketing Office,###-###-####,Sherry.Eastman@activedirectorypro.com,activedirectorypro.com,#### Berry Lane, PO Box 1234,Montgomery,AL,36104,US,\\server\profiles\%username%,marketing.bat,z:,\\server\users\Marketing\%username%,###-###-####,###-###-####,###-###-####,Marketing Coordinator,Active Directory Pro,1058,59,robert.allen,SMTP:Sherry.Eastman@activedirectorypro.com
Willard.Beeks,Football22!,"OU=Accounting,OU=ADPRO Users,DC=ad,DC=activedirectorypro,DC=com",Accounting,"Accounting_Printers,Accounting_Folders,Accounting_Local",Willard.Beeks@activedirectorypro.com,Willard,P,Beeks,Willard Beeks,,Accounting Office,###-###-####,Willard.Beeks@activedirectorypro.com,activedirectorypro.com,#### Berry Lane, PO Box 1234,Coos Bay,OR,97420,US,\\server\profiles\%username%,acct.bat,z:,\\server\users\accounting\%username%,###-###-####,###-###-####,###-###-####,Accounting Specialist,Active Directory Pro,1335,336,,SMTP:Willard.Beeks@activedirectorypro.com
Mona.Clarke,Football22!,"OU=Accounting,OU=ADPRO Users,DC=ad,DC=activedirectorypro,DC=com",Accounting,"Accounting_Printers,Accounting_Folders,Accounting_Local",Mona.Clarke@activedirectorypro.com,Mona,J,Clarke,Mona Clarke,,Accounting Office,###-###-####,Mona.Clarke@activedirectorypro.com,activedirectorypro.com,#### Berry Lane, PO Box 1234,Hickory Hills,IL,60457,US,\\server\profiles\%username%,acct.bat,z:,\\server\users\accounting\%username%,###-###-####,###-###-####,###-###-####,Accounting Specialist,Active Directory Pro,1336,337,,SMTP:Mona.Clarke@activedirectorypro.com
Joel.Johnson,Football22!,"OU=Accounting,OU=ADPRO Users,DC=ad,DC=activedirectorypro,DC=com",Accounting,"Accounting_Printers,Accounting_Folders,Accounting_Local",Joel.Johnson@activedirectorypro.com,Joel,R,Johnson,Joel Johnson,,Accounting Office,###-###-####,Joel.Johnson@activedirectorypro.com,activedirectorypro.com,#### Berry Lane, PO Box 1234,Charlotte,NC,28202,US,\\server\profiles\%username%,acct.bat,z:,\\server\users\accounting\%username%,###-###-####,###-###-####,###-###-####,Accounting Specialist,Active Directory Pro,1337,338,,SMTP:Joel.Johnson@activedirectorypro.com
Patricia.Demartini,Football22!,"OU=Accounting,OU=ADPRO Users,DC=ad,DC=activedirectorypro,DC=com",Accounting,"Accounting_Printers,Accounting_Folders,Accounting_Local",Patricia.Demartini@activedirectorypro.com,Patricia,H,Demartini,Patricia Demartini,,Accounting Office,###-###-####,Patricia.Demartini@activedirectorypro.com,activedirectorypro.com,#### Berry Lane, PO Box 1234,Hightstown,NJ,8520,US,\\server\profiles\%username%,acct.bat,z:,\\server\users\accounting\%username%,###-###-####,###-###-####,###-###-####,Accounting Specialist,Active Directory Pro,1338,339,,SMTP:Patricia.Demartini@activedirectorypro.com
Ivan.Barrett,Football22!,"OU=Accounting,OU=ADPRO Users,DC=ad,DC=activedirectorypro,DC=com",Accounting,"Accounting_Printers,Accounting_Folders,Accounting_Local",Ivan.Barrett@activedirectorypro.com,Ivan,D,Barrett,Ivan Barrett,,Accounting Office,###-###-####,Ivan.Barrett@activedirectorypro.com,activedirectorypro.com,#### Berry Lane, PO Box 1234,Saint Louis,MO,63101,US,\\server\profiles\%username%,acct.bat,z:,\\server\users\accounting\%username%,###-###-####,###-###-####,###-###-####,Accounting Specialist,Active Directory Pro,1339,340,,SMTP:Ivan.Barrett@activedirectorypro.com
Jennifer.Chamberlin,Football22!,"OU=Accounting,OU=ADPRO Users,DC=ad,DC=activedirectorypro,DC=com",Accounting,"Accounting_Printers,Accounting_Folders,Accounting_Local",Jennifer.Chamberlin@activedirectorypro.com,Jennifer,E,Chamberlin,Jennifer Chamberlin,,Accounting Office,###-###-####,Jennifer.Chamberlin@activedirectorypro.com,activedirectorypro.com,#### Berry Lane, PO Box 1234,Kyle,TX,78640,US,\\server\profiles\%username%,acct.bat,z:,\\server\users\accounting\%username%,###-###-####,###-###-####,###-###-####,Accounting Specialist,Active Directory Pro,1340,341,,SMTP:Jennifer.Chamberlin@activedirectorypro.com
Alice.Mills,Football22!,"OU=Accounting,OU=ADPRO Users,DC=ad,DC=activedirectorypro,DC=com",Accounting,"Accounting_Printers,Accounting_Folders,Accounting_Local",Alice.Mills@activedirectorypro.com,Alice,R,Mills,Alice Mills,,Accounting Office,###-###-####,Alice.Mills@activedirectorypro.com,activedirectorypro.com,#### Berry Lane, PO Box 1234,Cypress Gardens,FL,33884,US,\\server\profiles\%username%,acct.bat,z:,\\server\users\accounting\%username%,###-###-####,###-###-####,###-###-####,Accounting Specialist,Active Directory Pro,1341,342,,SMTP:Alice.Mills@activedirectorypro.com
Patricia.McIntyre,Football22!,"OU=Accounting,OU=ADPRO Users,DC=ad,DC=activedirectorypro,DC=com",Accounting,"Accounting_Printers,Accounting_Folders,Accounting_Local",Patricia.McIntyre@activedirectorypro.com,Patricia,R,McIntyre,Patricia McIntyre,,Accounting Office,###-###-####,Patricia.McIntyre@activedirectorypro.com,activedirectorypro.com,#### Berry Lane, PO Box 1234,Mattoon,IL,61938,US,\\server\profiles\%username%,acct.bat,z:,\\server\users\accounting\%username%,###-###-####,###-###-####,###-###-####,Accounting Specialist,Active Directory Pro,1342,343,,SMTP:Patricia.McIntyre@activedirectorypro.com
Maryln.Wiggins,Football22!,"OU=Accounting,OU=ADPRO Users,DC=ad,DC=activedirectorypro,DC=com",Accounting,"Accounting_Printers,Accounting_Folders,Accounting_Local",Maryln.Wiggins@activedirectorypro.com,Maryln,C,Wiggins,Maryln Wiggins,,Accounting Office,###-###-####,Maryln.Wiggins@activedirectorypro.com,activedirectorypro.com,#### Berry Lane, PO Box 1234,Sacramento,CA,95814,US,\\server\profiles\%username%,acct.bat,z:,\\server\users\accounting\%username%,###-###-####,###-###-####,###-###-####,Accounting Specialist,Active Directory Pro,1343,344,,SMTP:Maryln.Wiggins@activedirectorypro.com
Jonathan.Percival,Football22!,"OU=Accounting,OU=ADPRO Users,DC=ad,DC=activedirectorypro,DC=com",Accounting,"Accounting_Printers,Accounting_Folders,Accounting_Local",Jonathan.Percival@activedirectorypro.com,Jonathan,T,Percival,Jonathan Percival,,Accounting Office,###-###-####,Jonathan.Percival@activedirectorypro.com,activedirectorypro.com,#### Berry Lane, PO Box 1234,City Of Commerce,CA,90040,US,\\server\profiles\%username%,acct.bat,z:,\\server\users\accounting\%username%,###-###-####,###-###-####,###-###-####,Accounting Specialist,Active Directory Pro,1344,345,,SMTP:Jonathan.Percival@activedirectorypro.com
Carol.Watts,Football22!,"OU=Accounting,OU=ADPRO Users,DC=ad,DC=activedirectorypro,DC=com",Accounting,"Accounting_Printers,Accounting_Folders,Accounting_Local",Carol.Watts@activedirectorypro.com,Carol,O,Watts,Carol Watts,,Accounting Office,###-###-####,Carol.Watts@activedirectorypro.com,activedirectorypro.com,#### Berry Lane, PO Box 1234,Chico,CA,95928,US,\\server\profiles\%username%,acct.bat,z:,\\server\users\accounting\%username%,###-###-####,###-###-####,###-###-####,Accounting Specialist,Active Directory Pro,1345,346,,SMTP:Carol.Watts@activedirectorypro.com
Kathleen.Walters,Football22!,"OU=Accounting,OU=ADPRO Users,DC=ad,DC=activedirectorypro,DC=com",Accounting,"Accounting_Printers,Accounting_Folders,Accounting_Local",Kathleen.Walters@activedirectorypro.com,Kathleen,T,Walters,Kathleen Walters,,Accounting Office,###-###-####,Kathleen.Walters@activedirectorypro.com,activedirectorypro.com,#### Berry Lane, PO Box 1234,Albuquerque,NM,87112,US,\\server\profiles\%username%,acct.bat,z:,\\server\users\accounting\%username%,###-###-####,###-###-####,###-###-####,Accounting Specialist,Active Directory Pro,1346,347,,SMTP:Kathleen.Walters@activedirectorypro.com
Thanh.Lee,Football22!,"OU=Accounting,OU=ADPRO Users,DC=ad,DC=activedirectorypro,DC=com",Accounting,"Accounting_Printers,Accounting_Folders,Accounting_Local",Thanh.Lee@activedirectorypro.com,Thanh,M,Lee,Thanh Lee,,Accounting Office,###-###-####,Thanh.Lee@activedirectorypro.com,activedirectorypro.com,#### Berry Lane, PO Box 1234,Baker,MT,59313,US,\\server\profiles\%username%,acct.bat,z:,\\server\users\accounting\%username%,###-###-####,###-###-####,###-###-####,Accounting Specialist,Active Directory Pro,1347,348,,SMTP:Thanh.Lee@activedirectorypro.com
Martina.Sims,Football22!,"OU=Accounting,OU=ADPRO Users,DC=ad,DC=activedirectorypro,DC=com",Accounting,"Accounting_Printers,Accounting_Folders,Accounting_Local",Martina.Sims@activedirectorypro.com,Martina,W,Sims,Martina Sims,,Accounting Office,###-###-####,Martina.Sims@activedirectorypro.com,activedirectorypro.com,#### Berry Lane, PO Box 1234,Atlanta,GA,30303,US,\\server\profiles\%username%,acct.bat,z:,\\server\users\accounting\%username%,###-###-####,###-###-####,###-###-####,Accounting Specialist,Active Directory Pro,1348,349,,SMTP:Martina.Sims@activedirectorypro.com
Randolph.Adams,Football22!,"OU=Accounting,OU=ADPRO Users,DC=ad,DC=activedirectorypro,DC=com",Accounting,"Accounting_Printers,Accounting_Folders,Accounting_Local",Randolph.Adams@activedirectorypro.com,Randolph,K,Adams,Randolph Adams,,Accounting Office,###-###-####,Randolph.Adams@activedirectorypro.com,activedirectorypro.com,#### Berry Lane, PO Box 1234,Jackson,MS,39201,US,\\server\profiles\%username%,acct.bat,z:,\\server\users\accounting\%username%,###-###-####,###-###-####,###-###-####,Accounting Specialist,Active Directory Pro,1349,350,,SMTP:Randolph.Adams@activedirectorypro.com
Larry.James,Football22!,"OU=Accounting,OU=ADPRO Users,DC=ad,DC=activedirectorypro,DC=com",Accounting,"Accounting_Printers,Accounting_Folders,Accounting_Local",Larry.James@activedirectorypro.com,Larry,E,James,Larry James,,Accounting Office,###-###-####,Larry.James@activedirectorypro.com,activedirectorypro.com,#### Berry Lane, PO Box 1234,Clearwater,FL,34623,US,\\server\profiles\%username%,acct.bat,z:,\\server\users\accounting\%username%,###-###-####,###-###-####,###-###-####,Accounting Specialist,Active Directory Pro,1350,351,,SMTP:Larry.James@activedirectorypro.com
Jean.Robertson,Football22!,"OU=Accounting,OU=ADPRO Users,DC=ad,DC=activedirectorypro,DC=com",Accounting,"Accounting_Printers,Accounting_Folders,Accounting_Local",Jean.Robertson@activedirectorypro.com,Jean,B,Robertson,Jean Robertson,,Accounting Office,###-###-####,Jean.Robertson@activedirectorypro.com,activedirectorypro.com,#### Berry Lane, PO Box 1234,Chandler,IN,47610,US,\\server\profiles\%username%,acct.bat,z:,\\server\users\accounting\%username%,###-###-####,###-###-####,###-###-####,Accounting Specialist,Active Directory Pro,1351,352,,SMTP:Jean.Robertson@activedirectorypro.com
Kendra.Shreve,Football22!,"OU=Accounting,OU=ADPRO Users,DC=ad,DC=activedirectorypro,DC=com",Accounting,"Accounting_Printers,Accounting_Folders,Accounting_Local",Kendra.Shreve@activedirectorypro.com,Kendra,B,Shreve,Kendra Shreve,,Accounting Office,###-###-####,Kendra.Shreve@activedirectorypro.com,activedirectorypro.com,#### Berry Lane, PO Box 1234,Garner,NC,27529,US,\\server\profiles\%username%,acct.bat,z:,\\server\users\accounting\%username%,###-###-####,###-###-####,###-###-####,Accounting Specialist,Active Directory Pro,1352,353,,SMTP:Kendra.Shreve@activedirectorypro.com
Briana.Reynolds,Football22!,"OU=Accounting,OU=ADPRO Users,DC=ad,DC=activedirectorypro,DC=com",Accounting,"Accounting_Printers,Accounting_Folders,Accounting_Local",Briana.Reynolds@activedirectorypro.com,Briana,J,Reynolds,Briana Reynolds,,Accounting Office,###-###-####,Briana.Reynolds@activedirectorypro.com,activedirectorypro.com,#### Berry Lane, PO Box 1234,Virginia Beach,VA,23451,US,\\server\profiles\%username%,acct.bat,z:,\\server\users\accounting\%username%,###-###-####,###-###-####,###-###-####,Accounting Specialist,Active Directory Pro,1353,354,,SMTP:Briana.Reynolds@activedirectorypro.com
Preston.Fowler,Football22!,"OU=Accounting,OU=ADPRO Users,DC=ad,DC=activedirectorypro,DC=com",Accounting,"Accounting_Printers,Accounting_Folders,Accounting_Local",Preston.Fowler@activedirectorypro.com,Preston,C,Fowler,Preston Fowler,,Accounting Office,###-###-####,Preston.Fowler@activedirectorypro.com,activedirectorypro.com,#### Berry Lane, PO Box 1234,Anchorage,AK,99504,US,\\server\profiles\%username%,acct.bat,z:,\\server\users\accounting\%username%,###-###-####,###-###-####,###-###-####,Accounting Specialist,Active Directory Pro,1354,355,,SMTP:Preston.Fowler@activedirectorypro.com
Mary.Madden,Football22!,"OU=Accounting,OU=ADPRO Users,DC=ad,DC=activedirectorypro,DC=com",Accounting,"Accounting_Printers,Accounting_Folders,Accounting_Local",Mary.Madden@activedirectorypro.com,Mary,W,Madden,Mary Madden,,Accounting Office,###-###-####,Mary.Madden@activedirectorypro.com,activedirectorypro.com,#### Berry Lane, PO Box 1234,Johnstown,PA,15901,US,\\server\profiles\%username%,acct.bat,z:,\\server\users\accounting\%username%,###-###-####,###-###-####,###-###-####,Accounting Specialist,Active Directory Pro,1355,356,,SMTP:Mary.Madden@activedirectorypro.com
Beverly.Benavides,Football22!,"OU=Accounting,OU=ADPRO Users,DC=ad,DC=activedirectorypro,DC=com",Accounting,"Accounting_Printers,Accounting_Folders,Accounting_Local",Beverly.Benavides@activedirectorypro.com,Beverly,S,Benavides,Beverly Benavides,,Accounting Office,###-###-####,Beverly.Benavides@activedirectorypro.com,activedirectorypro.com,#### Berry Lane, PO Box 1234,Kenner,LA,70065,US,\\server\profiles\%username%,acct.bat,z:,\\server\users\accounting\%username%,###-###-####,###-###-####,###-###-####,Accounting Specialist,Active Directory Pro,1356,357,,SMTP:Beverly.Benavides@activedirectorypro.com
Robert.Nealey,Football22!,"OU=Accounting,OU=ADPRO Users,DC=ad,DC=activedirectorypro,DC=com",Accounting,"Accounting_Printers,Accounting_Folders,Accounting_Local",Robert.Nealey@activedirectorypro.com,Robert,J,Nealey,Robert Nealey,,Accounting Office,###-###-####,Robert.Nealey@activedirectorypro.com,activedirectorypro.com,#### Berry Lane, PO Box 1234,New York,NY,10038,US,\\server\profiles\%username%,acct.bat,z:,\\server\users\accounting\%username%,###-###-####,###-###-####,###-###-####,Accounting Specialist,Active Directory Pro,1357,358,,SMTP:Robert.Nealey@activedirectorypro.com
Kristine.Hone,Football22!,"OU=Accounting,OU=ADPRO Users,DC=ad,DC=activedirectorypro,DC=com",Accounting,"Accounting_Printers,Accounting_Folders,Accounting_Local",Kristine.Hone@activedirectorypro.com,Kristine,P,Hone,Kristine Hone,,Accounting Office,###-###-####,Kristine.Hone@activedirectorypro.com,activedirectorypro.com,#### Berry Lane, PO Box 1234,Omaha,NE,68154,US,\\server\profiles\%username%,acct.bat,z:,\\server\users\accounting\%username%,###-###-####,###-###-####,###-###-####,Accounting Specialist,Active Directory Pro,1358,359,,SMTP:Kristine.Hone@activedirectorypro.com
Harold.Hardy,Football22!,"OU=Accounting,OU=ADPRO Users,DC=ad,DC=activedirectorypro,DC=com",Accounting,"Accounting_Printers,Accounting_Folders,Accounting_Local",Harold.Hardy@activedirectorypro.com,Harold,P,Hardy,Harold Hardy,,Accounting Office,###-###-####,Harold.Hardy@activedirectorypro.com,activedirectorypro.com,#### Berry Lane, PO Box 1234,Menasha,WI,54952,US,\\server\profiles\%username%,acct.bat,z:,\\server\users\accounting\%username%,###-###-####,###-###-####,###-###-####,Accounting Specialist,Active Directory Pro,1359,360,,SMTP:Harold.Hardy@activedirectorypro.com
Julia.Bradley,Football22!,"OU=Accounting,OU=ADPRO Users,DC=ad,DC=activedirectorypro,DC=com",Accounting,"Accounting_Printers,Accounting_Folders,Accounting_Local",Julia.Bradley@activedirectorypro.com,Julia,B,Bradley,Julia Bradley,,Accounting Office,###-###-####,Julia.Bradley@activedirectorypro.com,activedirectorypro.com,#### Berry Lane, PO Box 1234,Southfield,MI,48075,US,\\server\profiles\%username%,acct.bat,z:,\\server\users\accounting\%username%,###-###-####,###-###-####,###-###-####,Accounting Specialist,Active Directory Pro,1360,361,,SMTP:Julia.Bradley@activedirectorypro.com
Chance.Glazier,Football22!,"OU=Accounting,OU=ADPRO Users,DC=ad,DC=activedirectorypro,DC=com",Accounting,"Accounting_Printers,Accounting_Folders,Accounting_Local",Chance.Glazier@activedirectorypro.com,Chance,A,Glazier,Chance Glazier,,Accounting Office,###-###-####,Chance.Glazier@activedirectorypro.com,activedirectorypro.com,#### Berry Lane, PO Box 1234,Indianapolis,IN,46225,US,\\server\profiles\%username%,acct.bat,z:,\\server\users\accounting\%username%,###-###-####,###-###-####,###-###-####,Accounting Specialist,Active Directory Pro,1361,362,,SMTP:Chance.Glazier@activedirectorypro.com
Claire.Stell,Football22!,"OU=Accounting,OU=ADPRO Users,DC=ad,DC=activedirectorypro,DC=com",Accounting,"Accounting_Printers,Accounting_Folders,Accounting_Local",Claire.Stell@activedirectorypro.com,Claire,K,Stell,Claire Stell,,Accounting Office,###-###-####,Claire.Stell@activedirectorypro.com,activedirectorypro.com,#### Berry Lane, PO Box 1234,Binghamton,NY,13901,US,\\server\profiles\%username%,acct.bat,z:,\\server\users\accounting\%username%,###-###-####,###-###-####,###-###-####,Accounting Specialist,Active Directory Pro,1362,363,,SMTP:Claire.Stell@activedirectorypro.com
Ima.Kim,Football22!,"OU=Accounting,OU=ADPRO Users,DC=ad,DC=activedirectorypro,DC=com",Accounting,"Accounting_Printers,Accounting_Folders,Accounting_Local",Ima.Kim@activedirectorypro.com,Ima,R,Kim,Ima Kim,,Accounting Office,###-###-####,Ima.Kim@activedirectorypro.com,activedirectorypro.com,#### Berry Lane, PO Box 1234,Charlestown,MA,2129,US,\\server\profiles\%username%,acct.bat,z:,\\server\users\accounting\%username%,###-###-####,###-###-####,###-###-####,Accounting Specialist,Active Directory Pro,1363,364,,SMTP:Ima.Kim@activedirectorypro.com
Jill.Schnell,Football22!,"OU=Accounting,OU=ADPRO Users,DC=ad,DC=activedirectorypro,DC=com",Accounting,"Accounting_Printers,Accounting_Folders,Accounting_Local",Jill.Schnell@activedirectorypro.com,Jill,B,Schnell,Jill Schnell,,Accounting Office,###-###-####,Jill.Schnell@activedirectorypro.com,activedirectorypro.com,#### Berry Lane, PO Box 1234,Minneapolis,MN,55415,US,\\server\profiles\%username%,acct.bat,z:,\\server\users\accounting\%username%,###-###-####,###-###-####,###-###-####,Accounting Specialist,Active Directory Pro,1364,365,,SMTP:Jill.Schnell@activedirectorypro.com
Donald.Ruben,Football22!,"OU=Accounting,OU=ADPRO Users,DC=ad,DC=activedirectorypro,DC=com",Accounting,"Accounting_Printers,Accounting_Folders,Accounting_Local",Donald.Ruben@activedirectorypro.com,Donald,E,Ruben,Donald Ruben,,Accounting Office,###-###-####,Donald.Ruben@activedirectorypro.com,activedirectorypro.com,#### Berry Lane, PO Box 1234,Rogersville,PA,15359,US,\\server\profiles\%username%,acct.bat,z:,\\server\users\accounting\%username%,###-###-####,###-###-####,###-###-####,Accounting Specialist,Active Directory Pro,1365,366,,SMTP:Donald.Ruben@activedirectorypro.com
James.Arthur,Football22!,"OU=Accounting,OU=ADPRO Users,DC=ad,DC=activedirectorypro,DC=com",Accounting,"Accounting_Printers,Accounting_Folders,Accounting_Local",James.Arthur@activedirectorypro.com,James,L,Arthur,James Arthur,,Accounting Office,###-###-####,James.Arthur@activedirectorypro.com,activedirectorypro.com,#### Berry Lane, PO Box 1234,Mound,MN,55364,US,\\server\profiles\%username%,acct.bat,z:,\\server\users\accounting\%username%,###-###-####,###-###-####,###-###-####,Accounting Specialist,Active Directory Pro,1366,367,,SMTP:James.Arthur@activedirectorypro.com
Latonya.Newsome,Football22!,"OU=Accounting,OU=ADPRO Users,DC=ad,DC=activedirectorypro,DC=com",Accounting,"Accounting_Printers,Accounting_Folders,Accounting_Local",Latonya.Newsome@activedirectorypro.com,Latonya,M,Newsome,Latonya Newsome,,Accounting Office,###-###-####,Latonya.Newsome@activedirectorypro.com,activedirectorypro.com,#### Berry Lane, PO Box 1234,Harrisburg,PA,17111,US,\\server\profiles\%username%,acct.bat,z:,\\server\users\accounting\%username%,###-###-####,###-###-####,###-###-####,Accounting Specialist,Active Directory Pro,1367,368,,SMTP:Latonya.Newsome@activedirectorypro.com
Helen.Bailey,Football22!,"OU=Accounting,OU=ADPRO Users,DC=ad,DC=activedirectorypro,DC=com",Accounting,"Accounting_Printers,Accounting_Folders,Accounting_Local",Helen.Bailey@activedirectorypro.com,Helen,R,Bailey,Helen Bailey,,Accounting Office,###-###-####,Helen.Bailey@activedirectorypro.com,activedirectorypro.com,#### Berry Lane, PO Box 1234,Saginaw,MI,48601,US,\\server\profiles\%username%,acct.bat,z:,\\server\users\accounting\%username%,###-###-####,###-###-####,###-###-####,Accounting Specialist,Active Directory Pro,1368,369,,SMTP:Helen.Bailey@activedirectorypro.com
Edna.Payne,Football22!,"OU=Accounting,OU=ADPRO Users,DC=ad,DC=activedirectorypro,DC=com",Accounting,"Accounting_Printers,Accounting_Folders,Accounting_Local",Edna.Payne@activedirectorypro.com,Edna,J,Payne,Edna Payne,,Accounting Office,###-###-####,Edna.Payne@activedirectorypro.com,activedirectorypro.com,#### Berry Lane, PO Box 1234,Burlington,IA,52601,US,\\server\profiles\%username%,acct.bat,z:,\\server\users\accounting\%username%,###-###-####,###-###-####,###-###-####,Accounting Specialist,Active Directory Pro,1369,370,,SMTP:Edna.Payne@activedirectorypro.com
Billy.Russo,Football22!,"OU=Accounting,OU=ADPRO Users,DC=ad,DC=activedirectorypro,DC=com",Accounting,"Accounting_Printers,Accounting_Folders,Accounting_Local",Billy.Russo@activedirectorypro.com,Billy,S,Russo,Billy Russo,,Accounting Office,###-###-####,Billy.Russo@activedirectorypro.com,activedirectorypro.com,#### Berry Lane, PO Box 1234,Greenville,NH,3048,US,\\server\profiles\%username%,acct.bat,z:,\\server\users\accounting\%username%,###-###-####,###-###-####,###-###-####,Accounting Specialist,Active Directory Pro,1370,371,,SMTP:Billy.Russo@activedirectorypro.com
Nathan.Westberg,Football22!,"OU=Accounting,OU=ADPRO Users,DC=ad,DC=activedirectorypro,DC=com",Accounting,"Accounting_Printers,Accounting_Folders,Accounting_Local",Nathan.Westberg@activedirectorypro.com,Nathan,M,Westberg,Nathan Westberg,,Accounting Office,###-###-####,Nathan.Westberg@activedirectorypro.com,activedirectorypro.com,#### Berry Lane, PO Box 1234,Baton Rouge,LA,70810,US,\\server\profiles\%username%,acct.bat,z:,\\server\users\accounting\%username%,###-###-####,###-###-####,###-###-####,Accounting Specialist,Active Directory Pro,1371,372,,SMTP:Nathan.Westberg@activedirectorypro.com
Scott.Ruiz,Football22!,"OU=Accounting,OU=ADPRO Users,DC=ad,DC=activedirectorypro,DC=com",Accounting,"Accounting_Printers,Accounting_Folders,Accounting_Local",Scott.Ruiz@activedirectorypro.com,Scott,K,Ruiz,Scott Ruiz,,Accounting Office,###-###-####,Scott.Ruiz@activedirectorypro.com,activedirectorypro.com,#### Berry Lane, PO Box 1234,Kona,HI,96740,US,\\server\profiles\%username%,acct.bat,z:,\\server\users\accounting\%username%,###-###-####,###-###-####,###-###-####,Accounting Specialist,Active Directory Pro,1372,373,,SMTP:Scott.Ruiz@activedirectorypro.com
Lilia.Benedetti,Football22!,"OU=Accounting,OU=ADPRO Users,DC=ad,DC=activedirectorypro,DC=com",Accounting,"Accounting_Printers,Accounting_Folders,Accounting_Local",Lilia.Benedetti@activedirectorypro.com,Lilia,J,Benedetti,Lilia Benedetti,,Accounting Office,###-###-####,Lilia.Benedetti@activedirectorypro.com,activedirectorypro.com,#### Berry Lane, PO Box 1234,Charlestown,MA,2129,US,\\server\profiles\%username%,acct.bat,z:,\\server\users\accounting\%username%,###-###-####,###-###-####,###-###-####,Accounting Specialist,Active Directory Pro,1373,374,,SMTP:Lilia.Benedetti@activedirectorypro.com
Preston.Addison,Football22!,"OU=Accounting,OU=ADPRO Users,DC=ad,DC=activedirectorypro,DC=com",Accounting,"Accounting_Printers,Accounting_Folders,Accounting_Local",Preston.Addison@activedirectorypro.com,Preston,C,Addison,Preston Addison,,Accounting Office,###-###-####,Preston.Addison@activedirectorypro.com,activedirectorypro.com,#### Berry Lane, PO Box 1234,Boston,MA,2114,US,\\server\profiles\%username%,acct.bat,z:,\\server\users\accounting\%username%,###-###-####,###-###-####,###-###-####,Accounting Specialist,Active Directory Pro,1374,375,,SMTP:Preston.Addison@activedirectorypro.com
Carlos.Richmond,Football22!,"OU=Accounting,OU=ADPRO Users,DC=ad,DC=activedirectorypro,DC=com",Accounting,"Accounting_Printers,Accounting_Folders,Accounting_Local",Carlos.Richmond@activedirectorypro.com,Carlos,N,Richmond,Carlos Richmond,,Accounting Office,###-###-####,Carlos.Richmond@activedirectorypro.com,activedirectorypro.com,#### Berry Lane, PO Box 1234,Lynn,MA,1901,US,\\server\profiles\%username%,acct.bat,z:,\\server\users\accounting\%username%,###-###-####,###-###-####,###-###-####,Accounting Specialist,Active Directory Pro,1375,376,,SMTP:Carlos.Richmond@activedirectorypro.com
Moriah.Mitchell,Football22!,"OU=Accounting,OU=ADPRO Users,DC=ad,DC=activedirectorypro,DC=com",Accounting,"Accounting_Printers,Accounting_Folders,Accounting_Local",Moriah.Mitchell@activedirectorypro.com,Moriah,R,Mitchell,Moriah Mitchell,,Accounting Office,###-###-####,Moriah.Mitchell@activedirectorypro.com,activedirectorypro.com,#### Berry Lane, PO Box 1234,Bridgewater,MA,2324,US,\\server\profiles\%username%,acct.bat,z:,\\server\users\accounting\%username%,###-###-####,###-###-####,###-###-####,Accounting Specialist,Active Directory Pro,1376,377,,SMTP:Moriah.Mitchell@activedirectorypro.com
Nora.Lindberg,Football22!,"OU=Accounting,OU=ADPRO Users,DC=ad,DC=activedirectorypro,DC=com",Accounting,"Accounting_Printers,Accounting_Folders,Accounting_Local",Nora.Lindberg@activedirectorypro.com,Nora,M,Lindberg,Nora Lindberg,,Accounting Office,###-###-####,Nora.Lindberg@activedirectorypro.com,activedirectorypro.com,#### Berry Lane, PO Box 1234,Carlsbad,NM,88220,US,\\server\profiles\%username%,acct.bat,z:,\\server\users\accounting\%username%,###-###-####,###-###-####,###-###-####,Accounting Specialist,Active Directory Pro,1377,378,,SMTP:Nora.Lindberg@activedirectorypro.com
Christopher.Monk,Football22!,"OU=Accounting,OU=ADPRO Users,DC=ad,DC=activedirectorypro,DC=com",Accounting,"Accounting_Printers,Accounting_Folders,Accounting_Local",Christopher.Monk@activedirectorypro.com,Christopher,G,Monk,Christopher Monk,,Accounting Office,###-###-####,Christopher.Monk@activedirectorypro.com,activedirectorypro.com,#### Berry Lane, PO Box 1234,Los Angeles,CA,90007,US,\\server\profiles\%username%,acct.bat,z:,\\server\users\accounting\%username%,###-###-####,###-###-####,###-###-####,Accounting Specialist,Active Directory Pro,1378,379,,SMTP:Christopher.Monk@activedirectorypro.com
Martin.Stevens,Football22!,"OU=Accounting,OU=ADPRO Users,DC=ad,DC=activedirectorypro,DC=com",Accounting,"Accounting_Printers,Accounting_Folders,Accounting_Local",Martin.Stevens@activedirectorypro.com,Martin,L,Stevens,Martin Stevens,,Accounting Office,###-###-####,Martin.Stevens@activedirectorypro.com,activedirectorypro.com,#### Berry Lane, PO Box 1234,Danville,CA,94526,US,\\server\profiles\%username%,acct.bat,z:,\\server\users\accounting\%username%,###-###-####,###-###-####,###-###-####,Accounting Specialist,Active Directory Pro,1379,380,,SMTP:Martin.Stevens@activedirectorypro.com
Rufus.Cruz,Football22!,"OU=Accounting,OU=ADPRO Users,DC=ad,DC=activedirectorypro,DC=com",Accounting,"Accounting_Printers,Accounting_Folders,Accounting_Local",Rufus.Cruz@activedirectorypro.com,Rufus,H,Cruz,Rufus Cruz,,Accounting Office,###-###-####,Rufus.Cruz@activedirectorypro.com,activedirectorypro.com,#### Berry Lane, PO Box 1234,Westland,MI,48185,US,\\server\profiles\%username%,acct.bat,z:,\\server\users\accounting\%username%,###-###-####,###-###-####,###-###-####,Accounting Specialist,Active Directory Pro,1380,381,,SMTP:Rufus.Cruz@activedirectorypro.com
Mildred.Keeling,Football22!,"OU=Accounting,OU=ADPRO Users,DC=ad,DC=activedirectorypro,DC=com",Accounting,"Accounting_Printers,Accounting_Folders,Accounting_Local",Mildred.Keeling@activedirectorypro.com,Mildred,C,Keeling,Mildred Keeling,,Accounting Office,###-###-####,Mildred.Keeling@activedirectorypro.com,activedirectorypro.com,#### Berry Lane, PO Box 1234,Mcclellan Afb,CA,95652,US,\\server\profiles\%username%,acct.bat,z:,\\server\users\accounting\%username%,###-###-####,###-###-####,###-###-####,Accounting Specialist,Active Directory Pro,1381,382,,SMTP:Mildred.Keeling@activedirectorypro.com
Michael.Banks,Football22!,"OU=Accounting,OU=ADPRO Users,DC=ad,DC=activedirectorypro,DC=com",Accounting,"Accounting_Printers,Accounting_Folders,Accounting_Local",Michael.Banks@activedirectorypro.com,Michael,B,Banks,Michael Banks,,Accounting Office,###-###-####,Michael.Banks@activedirectorypro.com,activedirectorypro.com,#### Berry Lane, PO Box 1234,Milwaukie,OR,97222,US,\\server\profiles\%username%,acct.bat,z:,\\server\users\accounting\%username%,###-###-####,###-###-####,###-###-####,Accounting Specialist,Active Directory Pro,1382,383,,SMTP:Michael.Banks@activedirectorypro.com
Daniel.Evans,Football22!,"OU=Accounting,OU=ADPRO Users,DC=ad,DC=activedirectorypro,DC=com",Accounting,"Accounting_Printers,Accounting_Folders,Accounting_Local",Daniel.Evans@activedirectorypro.com,Daniel,A,Evans,Daniel Evans,,Accounting Office,###-###-####,Daniel.Evans@activedirectorypro.com,activedirectorypro.com,#### Berry Lane, PO Box 1234,Huntley,MN,56047,US,\\server\profiles\%username%,acct.bat,z:,\\server\users\accounting\%username%,###-###-####,###-###-####,###-###-####,Accounting Specialist,Active Directory Pro,1383,384,,SMTP:Daniel.Evans@activedirectorypro.com
